C/2014 F3 (Sheppard-Trujillo),e,6.5217,327.0164,2.0542,16.24788,0.0150490,0.64887027,353.2496,02/12.0/2020,2000,g  6.0,4.0
# From MPC101095
C/2014 G3 (PANSTARRS),e,156.0842,4.7857,148.2406,54.10804,0.0024763,0.91296329,4.5428,02/12.0/2020,2000,g  9.0,4.0
# From MPC105541
C/2014 HU195 (Valdes-TOTAS),e,5.8173,115.7409,145.3670,22.11937,0.0094743,0.76791531,16.3813,02/12.0/2020,2000,g 10.5,4.0
# From MPC 98560
P/2014 L2 (NEOWISE),e,5.1944,149.3557,182.6260,6.304173,0.0622676,0.64773995,126.7514,02/12.0/2020,2000,g 12.0,4.0
# From MPC 90769
P/2014 L3 (Hill),e,6.2769,115.4728,178.6017,8.162974,0.0422602,0.77393682,86.7240,02/12.0/2020,2000,g 16.0,4.0
# From MPC103844
C/2014 M1 (PANSTARRS),e,160.2187,234.7744,337.1228,8600,0.0000012,0.99934929,0.0000,08/27.5561/2015,2000,g  9.0,4.0
# From MPC 91614
P/2014 M4 (PANSTARRS),e,3.3345,263.2848,147.9808,5.877681,0.0691664,0.59345226,129.7148,02/12.0/2020,2000,g 15.0,4.0
# From MPC103844
P/2014 MG4 (Spacewatch-PANSTARRS),e,9.3701,311.7394,299.0476,5.011707,0.0878467,0.26002826,213.5071,02/12.0/2020,2000,g  9.5,4.0
# From MPC103844
C/2014 N3 (NEOWISE),e,61.6589,19.8512,353.4023,1595,0.0000155,0.99757260,0.0000,03/12.6554/2015,2000,g  7.0,4.0
# From MPC 98560
P/2014 O3 (PANSTARRS),e,7.8091,87.6395,204.4868,7.558123,0.0474333,0.38640472,100.7472,02/12.0/2020,2000,g 10.5,4.0
# From MPEC 2020-AA5
C/2014 OE4 (PANSTARRS),h,12/12.3718/2016,81.3377,240.3987,65.8538,1.002450,6.247471,2000,11.0,2.0
# From MPC100578
C/2014 Q1 (PANSTARRS),e,43.0642,9.0538,119.9493,976.8053,0.0000323,0.99967402,0.0000,07/05.2799/2015,2000,g  8.0,4.0
# From MPC115880
C/2014 Q2 (Lovejoy),e,80.1918,95.0446,12.3466,415.2564,0.0001165,0.99688968,0.0000,01/28.2731/2015,2000,g  2.7,10.0
# From MPC115880
C/2014 R3 (PANSTARRS),e,90.8978,334.0919,113.4623,7362,0.0000016,0.99901162,0.0000,08/08.7141/2016,2000,g  6.5,4.0
# From MPC 91615
P/2014 R5 (Lemmon-PANSTARRS),e,1.0883,126.5508,213.6974,4.057434,0.1205943,0.41321997,249.1399,02/12.0/2020,2000,g 15.0,4.0
# From MPC104790
C/2014 S2 (PANSTARRS),e,64.4665,8.1031,87.3612,171.5838,0.0004385,0.98786110,0.0000,12/09.0433/2015,2000,g 10.0,4.0
# From MPC 91616
P/2014 U4 (PANSTARRS),e,6.4297,11.9652,347.7586,3.506656,0.1500943,0.46551166,304.8274,02/12.0/2020,2000,g 18.0,4.0
# From MPC 95211
P/2014 V1 (PANSTARRS),e,22.5026,166.2096,177.5495,5.482783,0.0767719,0.53367821,141.8198,02/12.0/2020,2000,g 14.0,4.0
# From MPC 93586
P/2014 W1 (PANSTARRS),e,8.8402,246.2447,152.3381,4.459820,0.1046473,0.38868723,212.6362,02/12.0/2020,2000,g 15.5,4.0
# From MPC110493
C/2014 W2 (PANSTARRS),e,82.0328,69.9647,84.9382,606.7349,0.0000659,0.99559598,0.0000,03/08.6517/2016,2000,g  7.5,4.0
# From MPC105542
P/2014 W4 (PANSTARRS),e,15.2677,33.3484,67.9677,6.603488,0.0580823,0.35219103,87.3328,02/12.0/2020,2000,g 11.0,4.0
# From MPC 95211
C/2014 W6 (Catalina),h,03/18.2145/2015,53.4911,338.1988,209.9482,1.001269,3.097113,2000,10.5,4.0
# From MPC 91616
C/2014 W8 (PANSTARRS),e,41.9603,224.8318,227.9944,170.5292,0.0004426,0.97056113,0.0000,09/08.9131/2015,2000,g 11.0,4.0
# From MPC 94672
C/2014 W9 (PANSTARRS),e,10.6156,21.3549,167.8950,11.20887,0.0262640,0.85735261,47.8960,02/12.0/2020,2000,g 16.0,4.0
# From MPC115880
C/2014 W10 (PANSTARRS),e,82.8656,43.1325,43.6721,861.5837,0.0000390,0.99120776,0.0000,03/04.8431/2016,2000,g  8.0,4.0
# From MPC107047
C/2014 W11 (PANSTARRS),e,14.9544,295.3717,226.3526,9.980195,0.0312605,0.66665403,51.9065,02/12.0/2020,2000,g 10.0,4.0
# From MPC 93587
P/2014 W12 (Gibbs),e,8.5141,299.2884,36.9223,3.517359,0.1494098,0.52392752,286.2798,02/12.0/2020,2000,g 15.0,4.0
# From MPC 94281
P/2014 X1 (Elenin),e,25.9990,61.5016,34.0265,6.212330,0.0636535,0.70859594,118.8084,02/12.0/2020,2000,g 15.0,4.0
# From MPC 96866
C/2014 XB8 (PANSTARRS),e,149.7908,37.4858,351.2953,626.0638,0.0000629,0.99520128,0.0000,04/04.0198/2015,2000,g 13.5,4.0
# From MPC100579
C/2014 Y1 (PANSTARRS),h,01/16.8418/2016,14.9177,19.5243,182.3428,1.001673,2.250642,2000,9.5,4.0
# From MPC 96279
C/2015 A1 (PANSTARRS),e,80.2085,341.0323,244.9330,20.23998,0.0108240,0.90132827,19.4514,02/12.0/2020,2000,g 14.5,4.0
# From MPC 93587
C/2015 A2 (PANSTARRS),p,08/01.8353/2015,109.1696,208.8369,5.341055,258.5042,2000,10.5,4.0
# From MPC 92275
P/2015 A3 (PANSTARRS),e,172.5279,277.1589,249.2073,7.807656,0.0451776,0.85180722,82.1683,02/12.0/2020,2000,g 20.0,4.0
# From MPC 99270
P/2015 B1 (PANSTARRS),e,18.0232,353.0797,188.7284,9.503806,0.0336401,0.36969502,54.1170,02/12.0/2020,2000,g  8.5,4.0
# From MPC108592
C/2015 B2 (PANSTARRS),h,05/06.1242/2016,105.0177,341.8731,284.7196,1.000239,3.368467,2000,9.5,4.0
# From MPC109141
P/2015 B4 (Lemmon-PANSTARRS),e,1.7605,266.0263,227.5220,8.539401,0.0394969,0.56102710,72.3214,02/12.0/2020,2000,g 11.0,4.0
# From MPC101096
P/2015 C1 (TOTAS-Gibbs),e,13.8844,348.8347,178.3994,6.589777,0.0582637,0.56037047,101.9454,02/12.0/2020,2000,g 12.5,4.0
# From MPC 95211
C/2015 C2 (SWAN),e,94.5386,49.5036,333.9575,345.6650,0.0001534,0.99795857,0.0000,03/03.9401/2015,2000,g 14.0,4.0
# From MPC119995
C/2015 D3 (PANSTARRS),h,05/03.1241/2016,128.5426,157.0355,2.9977,1.003851,8.149317,2000,5.5,4.0
# From MPC109141
P/2015 D5 (Kowalski),e,20.4936,74.0608,39.9938,8.980094,0.0366254,0.48905387,78.4337,02/12.0/2020,2000,g  9.0,4.0
# From MPC 96866
P/2015 D6 (Lemmon-PANSTARRS),e,20.2099,46.1283,125.2746,7.153337,0.0515159,0.36261499,86.5860,02/12.0/2020,2000,g 10.5,4.0
# From MPC112390
C/2015 ER61 (PANSTARRS),e,6.3460,235.2025,68.2244,457.3283,0.0001008,0.99772214,0.0000,05/10.2701/2017,2000,g 11.0,2.0
# From MPEC 2018-BF5
C/2015 E61-B (PANSTARRS),e,6.3476,235.2376,68.3136,1136,0.0000257,0.99908147,0.0000,05/10.2477/2017,2000,g 13.5,2.0
# From MPC109142
P/2015 F1 (PANSTARRS),e,2.8026,40.4074,187.4027,3.524013,0.1489868,0.27827307,267.1365,02/12.0/2020,2000,g 12.5,4.0
# From MPC 98561
C/2015 F2 (Polonia),e,28.7279,262.4491,352.2273,39.15122,0.0040233,0.96897866,7.0393,02/12.0/2020,2000,g 16.5,4.0
# From MPC 96279
C/2015 F3 (SWAN),e,73.5457,31.7156,57.4480,179.8350,0.0004087,0.99535940,0.0000,03/07.4910/2015,2000,g 14.5,4.0
# From MPC115880
C/2015 F4 (Jacques),e,48.8046,285.9194,36.3188,117.0910,0.0007779,0.98599486,0.0000,08/11.8056/2015,2000,g 11.0,4.0
# From MPC 95212
C/2015 F5 (SWAN-Xingming),e,149.3766,287.7500,13.4770,15.57138,0.0160403,0.97758150,0.0000,03/28.3664/2015,2000,g 15.5,4.0
# From MPC102096
C/2015 GX (PANSTARRS),e,90.2635,235.4941,108.8176,16.16564,0.0151640,0.87861501,24.7092,02/12.0/2020,2000,g 14.0,4.0
# From MPC109142
C/2015 G2 (MASTER),h,05/24.7350/2015,147.6614,110.2450,257.6481,1.000612,0.779474,2000,11.0,4.0
# From MPC 98561
C/2015 H1 (Bressi),e,140.6706,325.8509,21.9370,32.04247,0.0054339,0.93951252,9.6880,02/12.0/2020,2000,g 13.5,4.0
# From MPC117068
C/2015 H2 (PANSTARRS),h,09/14.1866/2016,33.6712,350.6913,288.0263,1.005467,4.972843,2000,7.5,4.0
# From MPC100280
P/2015 HG16 (PANSTARRS),e,18.8543,59.2095,47.2345,4.753529,0.0950998,0.34879006,195.7409,02/12.0/2020,2000,g 12.5,4.0
# From MPC101096
C/2015 J2 (PANSTARRS),e,17.2745,56.7511,203.8907,293.4638,0.0001961,0.98524080,0.0000,09/09.9919/2015,2000,g 10.0,4.0
# From MPC 95733
P/2015 J3 (NEOWISE),e,8.1308,111.3516,129.4292,3.349561,0.1607764,0.55451121,290.0477,02/12.0/2020,2000,g 16.5,4.0
# From MPC 95733
C/2015 K2 (PANSTARRS),e,29.0843,223.7178,15.9387,305.5114,0.0001846,0.99521216,0.0000,06/08.9432/2015,2000,g 20.0,4.0
# From MPC 95733
C/2015 K4 (PANSTARRS),h,05/01.8483/2015,80.2634,250.7302,357.7279,1.000905,2.017365,2000,15.0,4.0
# From MPC 95213
P/2015 K5 (PANSTARRS),e,39.9473,134.1930,106.2711,6.716889,0.0566176,0.55415308,96.8967,02/12.0/2020,2000,g 13.5,4.0
# From MPC111767
C/2015 LC2 (PANSTARRS),h,05/02.2803/2015,93.7214,223.5989,342.0273,1.000403,5.905504,2000,8.0,4.0
# From MPC 95734
C/2015 M1 (PANSTARRS),e,57.3302,100.1744,164.1761,448.7962,0.0001037,0.99532402,0.0000,05/15.8923/2015,2000,g 16.5,4.0
# From MPC107684
P/2015 M2 (PANSTARRS),e,3.9736,86.5785,225.1723,7.222414,0.0507786,0.18104048,82.2704,02/12.0/2020,2000,g  8.5,4.0
# From MPC115881
C/2015 M3 (PANSTARRS),e,65.8793,143.0160,123.8707,138.5277,0.0006045,0.97431839,0.0000,08/26.2718/2015,2000,g 12.0,4.0
# From MPC112390
C/2015 O1 (PANSTARRS),h,02/19.3238/2018,127.2225,299.8518,89.6291,1.000611,3.730303,2000,6.5,4.0
# From MPC 96280
C/2015 P3 (SWAN),e,58.2005,87.9893,133.1052,265.7429,0.0002275,0.99728444,0.0000,07/27.4714/2015,2000,g 15.5,4.0
# From MPC 99819
P/2015 P4 (PANSTARRS),e,8.7179,104.7666,280.6040,6.052506,0.0661914,0.58400570,98.3000,02/12.0/2020,2000,g 14.0,4.0
# From MPC102952
P/2015 PD229 (Cameron-ISON),e,2.0259,342.6549,352.3417,7.179043,0.0512394,0.32789243,84.1712,02/12.0/2020,2000,g 11.5,2.0
# From MPC 99819
P/2015 Q1 (Scotti),e,22.4067,203.0469,199.8793,3.469227,0.1525299,0.47887515,248.2536,02/12.0/2020,2000,g 14.0,4.0
# From MPC 96867
P/2015 Q2 (Pimentel),e,146.4683,228.3752,244.4095,7.344485,0.0495179,0.75130415,80.1954,02/12.0/2020,2000,g 15.5,4.0
# From MPC 98562
P/2015 R1 (PANSTARRS),e,22.6736,48.4816,300.3820,5.881595,0.0690973,0.63359065,116.8598,02/12.0/2020,2000,g 14.0,4.0
# From MPC 95734
P/2015 R2 (PANSTARRS),e,15.4716,168.6138,149.7020,4.489750,0.1036026,0.45250591,176.8817,02/12.0/2020,2000,g 14.5,4.0
# From MPC117068
C/2015 T2 (PANSTARRS),e,124.5485,51.0483,30.6729,2795,0.0000067,0.99751875,0.0000,05/18.9619/2017,2000,g  8.0,4.0
# From MPC 96280
P/2015 T3 (PANSTARRS),e,13.0937,120.5019,178.6330,4.326181,0.1095335,0.50818108,359.9227,12/21.0/2014,2000,g 14.0,4.0
# From MPC102953
C/2015 T4 (PANSTARRS),e,87.9647,251.8011,270.0571,80.41219,0.0013669,0.97143450,0.0000,06/17.5160/2016,2000,g 11.0,4.0
# From MPC102097
C/2015 T5 (Sheppard-Tholen),e,11.0492,311.0797,61.7963,28.06320,0.0066298,0.66745187,9.8251,02/12.0/2020,2000,g  7.5,4.0
# From MPC102953
P/2015 TO19 (Lemmon-PANSTARRS),e,6.4993,321.6428,89.2030,4.557751,0.1012927,0.35774579,145.7116,02/12.0/2020,2000,g 14.0,4.0
# From MPC110080
P/2015 TP200 (LINEAR),e,8.7732,6.9808,82.7259,7.282929,0.0501470,0.53491598,60.3021,02/12.0/2020,2000,g 11.0,4.0
# From MPC101097
